{
  "type": "FeatureCollection",
  "features": [
    {
      "type": "Feature",
      "properties": {
        "norad_id": 66670,
        "name": "HUNITY",
        "group": "last-30-days",
        "lat": 43.627047042445916,
        "lon": 66.021597543232,
        "alt_km": 514.1675067080105,
        "timestamp": "2025-12-27T17:24:56.104612+00:00",
        "meta_object_name": "HUNITY",
        "meta_object_id": "2025-276E",
        "meta_epoch": "2025-12-26T19:03:55.659744",
        "meta_mean_motion": 15.1744087,
        "meta_eccentricity": 0.0007097,
        "meta_inclination": 97.4293,
        "meta_ra_of_asc_node": 72.2531,
        "meta_arg_of_pericenter": 255.1008,
        "meta_mean_anomaly": 104.944,
        "meta_ephemeris_type": 0,
        "meta_classification_type": "U",
        "meta_norad_cat_id": 66670,
        "meta_element_set_no": 999,
        "meta_rev_at_epoch": 425,
        "meta_bstar": 0.0013401,
        "meta_mean_motion_dot": 0.00026842,
        "meta_mean_motion_ddot": 0,
        "tle_line1": "1 66670U 25276E   25360.79439421  .00026842  00000+0  13401-2 0  9994",
        "tle_line2": "2 66670  97.4293  72.2531 0007097 255.1008 104.9440 15.17440870  4255"
      },
      "geometry": {
        "type": "Point",
        "coordinates": [
          66.021597543232,
          43.627047042445916
        ]
      }
    },
    {
      "type": "Feature",
      "properties": {
        "norad_id": 66671,
        "name": "TRANSPORTER-15F",
        "group": "last-30-days",
        "lat": 51.43127451742959,
        "lon": 63.778468621315554,
        "alt_km": 513.0730410367632,
        "timestamp": "2025-12-27T17:24:56.104627+00:00",
        "meta_object_name": "TRANSPORTER-15F",
        "meta_object_id": "2025-276F",
        "meta_epoch": "2025-12-27T10:51:19.617696",
        "meta_mean_motion": 15.17232969,
        "meta_eccentricity": 0.0005223,
        "meta_inclination": 97.4415,
        "meta_ra_of_asc_node": 72.9442,
        "meta_arg_of_pericenter": 232.0506,
        "meta_mean_anomaly": 128.0256,
        "meta_ephemeris_type": 0,
        "meta_classification_type": "U",
        "meta_norad_cat_id": 66671,
        "meta_element_set_no": 999,
        "meta_rev_at_epoch": 435,
        "meta_bstar": 0.00068004,
        "meta_mean_motion_dot": 0.00013479,
        "meta_mean_motion_ddot": 0,
        "tle_line1": "1 66671U 25276F   25361.45231039  .00013479  00000+0  68004-3 0  9996",
        "tle_line2": "2 66671  97.4415  72.9442 0005223 232.0506 128.0256 15.17232969  4357"
      },
      "geometry": {
        "type": "Point",
        "coordinates": [
          63.778468621315554,
          51.43127451742959
        ]
      }
    },
    {
      "type": "Feature",
      "properties": {
        "norad_id": 66672,
        "name": "TRANSPORTER-15G",
        "group": "last-30-days",
        "lat": 16.418716107244002,
        "lon": 70.9816405918637,
        "alt_km": 519.8729931885746,
        "timestamp": "2025-12-27T17:24:56.104638+00:00",
        "meta_object_name": "TRANSPORTER-15G",
        "meta_object_id": "2025-276G",
        "meta_epoch": "2025-12-27T11:00:32.505120",
        "meta_mean_motion": 15.1666888,
        "meta_eccentricity": 0.0005582,
        "meta_inclination": 97.4389,
        "meta_ra_of_asc_node": 72.9263,
        "meta_arg_of_pericenter": 229.8107,
        "meta_mean_anomaly": 130.2638,
        "meta_ephemeris_type": 0,
        "meta_classification_type": "U",
        "meta_norad_cat_id": 66672,
        "meta_element_set_no": 999,
        "meta_rev_at_epoch": 435,
        "meta_bstar": 0.00049641,
        "meta_mean_motion_dot": 9.659e-05,
        "meta_mean_motion_ddot": 0,
        "tle_line1": "1 66672U 25276G   25361.45870955  .00009659  00000+0  49641-3 0  9994",
        "tle_line2": "2 66672  97.4389  72.9263 0005582 229.8107 130.2638 15.16668880  4351"
      },
      "geometry": {
        "type": "Point",
        "coordinates": [
          70.9816405918637,
          16.418716107244002
        ]
      }
    },
    {
      "type": "Feature",
      "properties": {
        "norad_id": 66673,
        "name": "TRANSPORTER-15H",
        "group": "last-30-days",
        "lat": 82.27175307280312,
        "lon": -32.65992877989974,
        "alt_km": 514.0663747988701,
        "timestamp": "2025-12-27T17:24:56.104647+00:00",
        "meta_object_name": "TRANSPORTER-15H",
        "meta_object_id": "2025-276H",
        "meta_epoch": "2025-12-27T09:06:45.578880",
        "meta_mean_motion": 15.20590437,
        "meta_eccentricity": 0.0023173,
        "meta_inclination": 97.4328,
        "meta_ra_of_asc_node": 72.8449,
        "meta_arg_of_pericenter": 289.0638,
        "meta_mean_anomaly": 70.8087,
        "meta_ephemeris_type": 0,
        "meta_classification_type": "U",
        "meta_norad_cat_id": 66673,
        "meta_element_set_no": 999,
        "meta_rev_at_epoch": 434,
        "meta_bstar": -0.046481,
        "meta_mean_motion_dot": -0.00950427,
        "meta_mean_motion_ddot": 0,
        "tle_line1": "1 66673U 25276H   25361.37969420 -.00950427  00000+0 -46481-1 0  9999",
        "tle_line2": "2 66673  97.4328  72.8449 0023173 289.0638  70.8087 15.20590437  4346"
      },
      "geometry": {
        "type": "Point",
        "coordinates": [
          -32.65992877989974,
          82.27175307280312
        ]
      }
    },
    {
      "type": "Feature",
      "properties": {
        "norad_id": 66674,
        "name": "TRANSPORTER-15J",
        "group": "last-30-days",
        "lat": 28.005951713778853,
        "lon": 69.20191068737508,
        "alt_km": 517.6281147345171,
        "timestamp": "2025-12-27T17:24:56.104659+00:00",
        "meta_object_name": "TRANSPORTER-15J",
        "meta_object_id": "2025-276J",
        "meta_epoch": "2025-12-27T10:57:29.104704",
        "meta_mean_motion": 15.1679024,
        "meta_eccentricity": 0.0005131,
        "meta_inclination": 97.4367,
        "meta_ra_of_asc_node": 72.9215,
        "meta_arg_of_pericenter": 233.6082,
        "meta_mean_anomaly": 126.4679,
        "meta_ephemeris_type": 0,
        "meta_classification_type": "U",
        "meta_norad_cat_id": 66674,
        "meta_element_set_no": 999,
        "meta_rev_at_epoch": 435,
        "meta_bstar": 0.00045077,
        "meta_mean_motion_dot": 8.794e-05,
        "meta_mean_motion_ddot": 0,
        "tle_line1": "1 66674U 25276J   25361.45658686  .00008794  00000+0  45077-3 0  9999",
        "tle_line2": "2 66674  97.4367  72.9215 0005131 233.6082 126.4679 15.16790240  4359"
      },
      "geometry": {
        "type": "Point",
        "coordinates": [
          69.20191068737508,
          28.005951713778853
        ]
      }
    },
    {
      "type": "Feature",
      "properties": {
        "norad_id": 66675,
        "name": "TRANSPORTER-15K",
        "group": "last-30-days",
        "lat": 28.4562603692298,
        "lon": 69.12962292108836,
        "alt_km": 535.1149109620637,
        "timestamp": "2025-12-27T17:24:56.104670+00:00",
        "meta_object_name": "TRANSPORTER-15K",
        "meta_object_id": "2025-276K",
        "meta_epoch": "2025-12-26T22:14:18.407616",
        "meta_mean_motion": 15.14108486,
        "meta_eccentricity": 0.0013986,
        "meta_inclination": 97.4377,
        "meta_ra_of_asc_node": 72.4107,
        "meta_arg_of_pericenter": 151.0165,
        "meta_mean_anomaly": 209.1846,
        "meta_ephemeris_type": 0,
        "meta_classification_type": "U",
        "meta_norad_cat_id": 66675,
        "meta_element_set_no": 999,
        "meta_rev_at_epoch": 427,
        "meta_bstar": -0.095744,
        "meta_mean_motion_dot": -0.01588729,
        "meta_mean_motion_ddot": 0,
        "tle_line1": "1 66675U 25276K   25360.92660194 -.01588729  00000+0 -95744-1 0  9996",
        "tle_line2": "2 66675  97.4377  72.4107 0013986 151.0165 209.1846 15.14108486  4277"
      },
      "geometry": {
        "type": "Point",
        "coordinates": [
          69.12962292108836,
          28.4562603692298
        ]
      }
    },
    {
      "type": "Feature",
      "properties": {
        "norad_id": 66676,
        "name": "TRANSPORTER-15L",
        "group": "last-30-days",
        "lat": 52.961907461515324,
        "lon": 63.23400556168528,
        "alt_km": 507.51075712298916,
        "timestamp": "2025-12-27T17:24:56.104680+00:00",
        "meta_object_name": "TRANSPORTER-15L",
        "meta_object_id": "2025-276L",
        "meta_epoch": "2025-12-27T06:08:24.691776",
        "meta_mean_motion": 15.2229433,
        "meta_eccentricity": 0.0024796,
        "meta_inclination": 97.4375,
        "meta_ra_of_asc_node": 72.7381,
        "meta_arg_of_pericenter": 254.3833,
        "meta_mean_anomaly": 105.4666,
        "meta_ephemeris_type": 0,
        "meta_classification_type": "U",
        "meta_norad_cat_id": 66676,
        "meta_element_set_no": 999,
        "meta_rev_at_epoch": 432,
        "meta_bstar": 0.038399,
        "meta_mean_motion_dot": 0.00963103,
        "meta_mean_motion_ddot": 0,
        "tle_line1": "1 66676U 25276L   25361.25584134  .00963103  00000+0  38399-1 0  9996",
        "tle_line2": "2 66676  97.4375  72.7381 0024796 254.3833 105.4666 15.22294330  4320"
      },
      "geometry": {
        "type": "Point",
        "coordinates": [
          63.23400556168528,
          52.961907461515324
        ]
      }
    }
  ]
}